[{"OBJECT_NAME":"BEIDOU-3 M11 (C25)","OBJECT_ID":"2018-067B","EPOCH":"2024-06-16T05:50:27.998304","MEAN_MOTION":1.86231706,"ECCENTRICITY":0.0003667,"INCLINATION":54.2198,"RA_OF_ASC_NODE":205.802,"ARG_OF_PERICENTER":359.8439,"MEAN_ANOMALY":0.2335,"EPHEMERIS_TYPE":0,"CLASSIFICATION_TYPE":"U","NORAD_CAT_ID":43603,"ELEMENT_SET_NO":999,"REV_AT_EPOCH":3953,"BSTAR":0,"MEAN_MOTION_DOT":8.5e-7,"MEAN_MOTION_DDOT":0},{"OBJECT_NAME":"BEIDOU-3 M13 (C32)","OBJECT_ID":"2018-072A","EPOCH":"2024-06-17T06:40:38.769600","MEAN_MOTION":1.86231628,"ECCENTRICITY":0.0007314,"INCLINATION":55.993,"RA_OF_ASC_NODE":86.8768,"ARG_OF_PERICENTER":309.6716,"MEAN_ANOMALY":50.2592,"EPHEMERIS_TYPE":0,"CLASSIFICATION_TYPE":"U","NORAD_CAT_ID":43622,"ELEMENT_SET_NO":999,"REV_AT_EPOCH":3906,"BSTAR":0,"MEAN_MOTION_DOT":-4.7e-7,"MEAN_MOTION_DDOT":0},{"OBJECT_NAME":"BEIDOU-3 M14 (C33)","OBJECT_ID":"2018-072B","EPOCH":"2024-06-17T03:26:54.161952","MEAN_MOTION":1.86231634,"ECCENTRICITY":0.0005675,"INCLINATION":55.9947,"RA_OF_ASC_NODE":86.8744,"ARG_OF_PERICENTER":337.2736,"MEAN_ANOMALY":22.6966,"EPHEMERIS_TYPE":0,"CLASSIFICATION_TYPE":"U","NORAD_CAT_ID":43623,"ELEMENT_SET_NO":999,"REV_AT_EPOCH":3905,"BSTAR":0,"MEAN_MOTION_DOT":-4.7e-7,"MEAN_MOTION_DDOT":0},{"OBJECT_NAME":"BEIDOU-3 M16 (C35)","OBJECT_ID":"2018-078A","EPOCH":"2024-06-17T07:21:11.831616","MEAN_MOTION":1.86232394,"ECCENTRICITY":0.0007058,"INCLINATION":54.7156,"RA_OF_ASC_NODE":325.4274,"ARG_OF_PERICENTER":24.5567,"MEAN_ANOMALY":335.4704,"EPHEMERIS_TYPE":0,"CLASSIFICATION_TYPE":"U","NORAD_CAT_ID":43647,"ELEMENT_SET_NO":999,"REV_AT_EPOCH":3856,"BSTAR":0,"MEAN_MOTION_DOT":-8.5e-7,"MEAN_MOTION_DDOT":0},{"OBJECT_NAME":"BEIDOU-3 M15 (C34)","OBJECT_ID":"2018-078B","EPOCH":"2024-06-16T21:34:00.498432","MEAN_MOTION":1.86232407,"ECCENTRICITY":0.0004213,"INCLINATION":54.7117,"RA_OF_ASC_NODE":325.4444,"ARG_OF_PERICENTER":40.771,"MEAN_ANOMALY":319.2546,"EPHEMERIS_TYPE":0,"CLASSIFICATION_TYPE":"U","NORAD_CAT_ID":43648,"ELEMENT_SET_NO":999,"REV_AT_EPOCH":3857,"BSTAR":0,"MEAN_MOTION_DOT":-8.6e-7,"MEAN_MOTION_DDOT":0},{"OBJECT_NAME":"BEIDOU-3 G1 (C59)","OBJECT_ID":"2018-085A","EPOCH":"2024-06-17T21:33:55.229760","MEAN_MOTION":1.00274317,"ECCENTRICITY":0.0004046,"INCLINATION":2.1932,"RA_OF_ASC_NODE":109.5561,"ARG_OF_PERICENTER":349.5822,"MEAN_ANOMALY":271.0034,"EPHEMERIS_TYPE":0,"CLASSIFICATION_TYPE":"U","NORAD_CAT_ID":43683,"ELEMENT_SET_NO":999,"REV_AT_EPOCH":2074,"BSTAR":0,"MEAN_MOTION_DOT":-2.56e-6,"MEAN_MOTION_DDOT":0},{"OBJECT_NAME":"COSMOS 2529 (757)","OBJECT_ID":"2018-086A","EPOCH":"2024-06-17T11:36:03.564576","MEAN_MOTION":2.13102181,"ECCENTRICITY":0.0011312,"INCLINATION":64.2976,"RA_OF_ASC_NODE":217.2698,"ARG_OF_PERICENTER":259.0961,"MEAN_ANOMALY":100.8614,"EPHEMERIS_TYPE":0,"CLASSIFICATION_TYPE":"U","NORAD_CAT_ID":43687,"ELEMENT_SET_NO":999,"REV_AT_EPOCH":4373,"BSTAR":0,"MEAN_MOTION_DOT":8.1e-7,"MEAN_MOTION_DDOT":0},{"OBJECT_NAME":"BEIDOU-3 M17 (C36)","OBJECT_ID":"2018-093A","EPOCH":"2024-06-17T14:03:43.412832","MEAN_MOTION":1.86228554,"ECCENTRICITY":0.0010208,"INCLINATION":54.2151,"RA_OF_ASC_NODE":207.059,"ARG_OF_PERICENTER":279.7742,"MEAN_ANOMALY":80.1945,"EPHEMERIS_TYPE":0,"CLASSIFICATION_TYPE":"U","NORAD_CAT_ID":43706,"ELEMENT_SET_NO":999,"REV_AT_EPOCH":3795,"BSTAR":0,"MEAN_MOTION_DOT":9.9e-7,"MEAN_MOTION_DDOT":0},{"OBJECT_NAME":"BEIDOU-3 M18 (C37)","OBJECT_ID":"2018-093B","EPOCH":"2024-06-17T10:49:48.692064","MEAN_MOTION":1.8623003,"ECCENTRICITY":0.0008049,"INCLINATION":54.2159,"RA_OF_ASC_NODE":207.0554,"ARG_OF_PERICENTER":304.6308,"MEAN_ANOMALY":55.3767,"EPHEMERIS_TYPE":0,"CLASSIFICATION_TYPE":"U","NORAD_CAT_ID":43707,"ELEMENT_SET_NO":999,"REV_AT_EPOCH":3794,"BSTAR":0,"MEAN_MOTION_DOT":9.8e-7,"MEAN_MOTION_DDOT":0},{"OBJECT_NAME":"GPS BIII-1  (PRN 04)","OBJECT_ID":"2018-109A","EPOCH":"2024-06-17T19:16:17.912640","MEAN_MOTION":2.00556157,"ECCENTRICITY":0.002905,"INCLINATION":55.2979,"RA_OF_ASC_NODE":121.0042,"ARG_OF_PERICENTER":195.2748,"MEAN_ANOMALY":318.7476,"EPHEMERIS_TYPE":0,"CLASSIFICATION_TYPE":"U","NORAD_CAT_ID":43873,"ELEMENT_SET_NO":999,"REV_AT_EPOCH":4044,"BSTAR":0,"MEAN_MOTION_DOT":2.3e-7,"MEAN_MOTION_DDOT":0},{"OBJECT_NAME":"BEIDOU-3 IGSO-1 (C38)","OBJECT_ID":"2019-023A","EPOCH":"2024-06-17T04:55:48.410688","MEAN_MOTION":1.00249867,"ECCENTRICITY":0.0018941,"INCLINATION":57.6415,"RA_OF_ASC_NODE":45.2233,"ARG_OF_PERICENTER":209.3642,"MEAN_ANOMALY":200.6006,"EPHEMERIS_TYPE":0,"CLASSIFICATION_TYPE":"U","NORAD_CAT_ID":44204,"ELEMENT_SET_NO":999,"REV_AT_EPOCH":1902,"BSTAR":0,"MEAN_MOTION_DOT":-2.26e-6,"MEAN_MOTION_DDOT":0},{"OBJECT_NAME":"BEIDOU-2 G8 (C01)","OBJECT_ID":"2019-027A","EPOCH":"2024-06-17T21:35:17.935296","MEAN_MOTION":1.00276146,"ECCENTRICITY":0.0002289,"INCLINATION":1.9502,"RA_OF_ASC_NODE":73.9209,"ARG_OF_PERICENTER":155.0268,"MEAN_ANOMALY":145.9574,"EPHEMERIS_TYPE":0,"CLASSIFICATION_TYPE":"U","NORAD_CAT_ID":44231,"ELEMENT_SET_NO":999,"REV_AT_EPOCH":1876,"BSTAR":0,"MEAN_MOTION_DOT":-2.27e-6,"MEAN_MOTION_DDOT":0},{"OBJECT_NAME":"COSMOS 2534 (758)","OBJECT_ID":"2019-030A","EPOCH":"2024-06-17T12:46:43.332672","MEAN_MOTION":2.13102418,"ECCENTRICITY":0.0013155,"INCLINATION":64.3703,"RA_OF_ASC_NODE":217.2217,"ARG_OF_PERICENTER":278.8253,"MEAN_ANOMALY":253.0132,"EPHEMERIS_TYPE":0,"CLASSIFICATION_TYPE":"U","NORAD_CAT_ID":44299,"ELEMENT_SET_NO":999,"REV_AT_EPOCH":3937,"BSTAR":0,"MEAN_MOTION_DOT":8.2e-7,"MEAN_MOTION_DDOT":0},{"OBJECT_NAME":"BEIDOU-3 IGSO-2 (C39)","OBJECT_ID":"2019-035A","EPOCH":"2024-06-17T19:55:42.654720","MEAN_MOTION":1.00297555,"ECCENTRICITY":0.0035429,"INCLINATION":55.1795,"RA_OF_ASC_NODE":165.2626,"ARG_OF_PERICENTER":205.1381,"MEAN_ANOMALY":311.1539,"EPHEMERIS_TYPE":0,"CLASSIFICATION_TYPE":"U","NORAD_CAT_ID":44337,"ELEMENT_SET_NO":999,"REV_AT_EPOCH":1835,"BSTAR":0,"MEAN_MOTION_DOT":-3.5e-7,"MEAN_MOTION_DDOT":0},{"OBJECT_NAME":"GPS BIII-2  (PRN 18)","OBJECT_ID":"2019-056A","EPOCH":"2024-06-17T23:07:03.857376","MEAN_MOTION":2.00572085,"ECCENTRICITY":0.0042582,"INCLINATION":55.8412,"RA_OF_ASC_NODE":0.0531,"ARG_OF_PERICENTER":188.0301,"MEAN_ANOMALY":343.3752,"EPHEMERIS_TYPE":0,"CLASSIFICATION_TYPE":"U","NORAD_CAT_ID":44506,"ELEMENT_SET_NO":999,"REV_AT_EPOCH":3544,"BSTAR":0,"MEAN_MOTION_DOT":-7.5e-7,"MEAN_MOTION_DDOT":0},{"OBJECT_NAME":"BEIDOU-3 M24 (C46)","OBJECT_ID":"2019-061A","EPOCH":"2024-06-17T12:30:01.166112","MEAN_MOTION":1.86231391,"ECCENTRICITY":0.0007615,"INCLINATION":54.4429,"RA_OF_ASC_NODE":207.3475,"ARG_OF_PERICENTER":342.1867,"MEAN_ANOMALY":17.8706,"EPHEMERIS_TYPE":0,"CLASSIFICATION_TYPE":"U","NORAD_CAT_ID":44542,"ELEMENT_SET_NO":999,"REV_AT_EPOCH":3220,"BSTAR":0,"MEAN_MOTION_DOT":9.9e-7,"MEAN_MOTION_DDOT":0},{"OBJECT_NAME":"BEIDOU-3 M23 (C45)","OBJECT_ID":"2019-061B","EPOCH":"2024-06-16T21:32:00.989952","MEAN_MOTION":1.86231846,"ECCENTRICITY":0.0005298,"INCLINATION":54.4412,"RA_OF_ASC_NODE":207.3376,"ARG_OF_PERICENTER":321.1505,"MEAN_ANOMALY":253.0732,"EPHEMERIS_TYPE":0,"CLASSIFICATION_TYPE":"U","NORAD_CAT_ID":44543,"ELEMENT_SET_NO":999,"REV_AT_EPOCH":3219,"BSTAR":0,"MEAN_MOTION_DOT":9.2e-7,"MEAN_MOTION_DDOT":0}]
