BEIDOU-3 M11 (C25)      
1 43603U 18067B   24168.24337961  .00000085  00000+0  00000+0 0  9995
2 43603  54.2198 205.8020 0003667 359.8439   0.2335  1.86231706 39534
BEIDOU-3 M13 (C32)      
1 43622U 18072A   24169.27822650 -.00000047  00000+0  00000+0 0  9999
2 43622  55.9930  86.8768 0007314 309.6716  50.2592  1.86231628 39068
BEIDOU-3 M14 (C33)      
1 43623U 18072B   24169.14368243 -.00000047  00000+0  00000+0 0  9999
2 43623  55.9947  86.8744 0005675 337.2736  22.6966  1.86231634 39052
BEIDOU-3 M16 (C35)      
1 43647U 18078A   24169.30638694 -.00000085  00000+0  00000+0 0  9991
2 43647  54.7156 325.4274 0007058  24.5567 335.4704  1.86232394 38566
BEIDOU-3 M15 (C34)      
1 43648U 18078B   24168.89861688 -.00000086  00000+0  00000+0 0  9997
2 43648  54.7117 325.4444 0004213  40.7710 319.2546  1.86232407 38573
BEIDOU-3 G1 (C59)       
1 43683U 18085A   24169.89855590 -.00000256  00000+0  00000+0 0  9999
2 43683   2.1932 109.5561 0004046 349.5822 271.0034  1.00274317 20742
BEIDOU-3 M17 (C36)      
1 43706U 18093A   24169.58591913  .00000099  00000+0  00000+0 0  9990
2 43706  54.2151 207.0590 0010208 279.7742  80.1945  1.86228554 37954
BEIDOU-3 M18 (C37)      
1 43707U 18093B   24169.45125801  .00000098  00000+0  00000+0 0  9995
2 43707  54.2159 207.0554 0008049 304.6308  55.3767  1.86230030 37946
BEIDOU-3 IGSO-1 (C38)   
1 44204U 19023A   24169.20542142 -.00000226  00000+0  00000+0 0  9990
2 44204  57.6415  45.2233 0018941 209.3642 200.6006  1.00249867 19025
BEIDOU-2 G8 (C01)       
1 44231U 19027A   24169.89951314 -.00000227  00000+0  00000+0 0  9995
2 44231   1.9502  73.9209 0002289 155.0268 145.9574  1.00276146 18765
BEIDOU-3 IGSO-2 (C39)   
1 44337U 19035A   24169.83035480 -.00000035  00000+0  00000+0 0  9999
2 44337  55.1795 165.2626 0035429 205.1381 311.1539  1.00297555 18350
BEIDOU-3 M24 (C46)      
1 44542U 19061A   24169.52084683  .00000099  00000+0  00000+0 0  9990
2 44542  54.4429 207.3475 0007615 342.1867  17.8706  1.86231391 32207
BEIDOU-3 M23 (C45)      
1 44543U 19061B   24168.89723368  .00000092  00000+0  00000+0 0  9993
2 44543  54.4412 207.3376 0005298 321.1505 253.0732  1.86231846 32197
COSMOS 2529 (757)       
1 43687U 18086A   24169.48337459  .00000081  00000+0  00000+0 0  9993
2 43687  64.2976 217.2698 0011312 259.0961 100.8614  2.13102181 43735
COSMOS 2534 (758)       
1 44299U 19030A   24169.53244598  .00000082  00000+0  00000+0 0  9991
2 44299  64.3703 217.2217 0013155 278.8253 253.0132  2.13102418 39375
GPS BIII-1  (PRN 04)    
1 43873U 18109A   24169.80298510  .00000023  00000+0  00000+0 0  9992
2 43873  55.2979 121.0042 0029050 195.2748 318.7476  2.00556157 40445
GPS BIII-2  (PRN 18)    
1 44506U 19056A   24169.96323909 -.00000075  00000+0  00000+0 0  9994
2 44506  55.8412   0.0531 0042582 188.0301 343.3752  2.00572085 35449
